{
  "norad_id": 63466,
  "name": "STARLINK-33654",
  "history": [
    {
      "epoch": "2026-03-28T04:14:04.402176Z",
      "apogee_km": 483.52552347123947,
      "perigee_km": 482.4625970473853,
      "latitude_deg": -1.225202337813701e-06,
      "longitude_deg": -93.71368639280502,
      "height_km": 482.9789223977865,
      "semi_major_axis_km": 6861.131060259312,
      "eccentricity": 7.746e-05,
      "inclination_deg": 42.9999,
      "raan_deg": 155.4053,
      "arg_perigee_deg": 246.8658,
      "mean_anomaly_deg": 113.2112,
      "mean_motion_rev_day": 15.2759838
    },
    {
      "epoch": "2026-03-30T03:18:46.713888Z",
      "apogee_km": 483.4091636304256,
      "perigee_km": 482.57841791427927,
      "latitude_deg": 1.2047614037933167e-05,
      "longitude_deg": -92.89911269660831,
      "height_km": 482.4308490840342,
      "semi_major_axis_km": 6861.130790772352,
      "eccentricity": 6.054e-05,
      "inclination_deg": 43.0021,
      "raan_deg": 144.3296,
      "arg_perigee_deg": 35.4763,
      "mean_anomaly_deg": 324.6129,
      "mean_motion_rev_day": 15.2759847
    },
    {
      "epoch": "2026-03-30T12:43:42.829248Z",
      "apogee_km": 484.0025712234592,
      "perigee_km": 482.02354110126,
      "latitude_deg": -5.8490843368199656e-06,
      "longitude_deg": 123.26417023020079,
      "height_km": 482.69847512232195,
      "semi_major_axis_km": 6861.15005616236,
      "eccentricity": 0.00014422,
      "inclination_deg": 43.0035,
      "raan_deg": 142.1134,
      "arg_perigee_deg": 275.3182,
      "mean_anomaly_deg": 84.7505,
      "mean_motion_rev_day": 15.27592036
    },
    {
      "epoch": "2026-03-30T20:34:30.440064Z",
      "apogee_km": 483.4017096162306,
      "perigee_km": 482.6882839122072,
      "latitude_deg": -3.58157412941116e-06,
      "longitude_deg": 3.3962479158290537,
      "height_km": 482.54792447114227,
      "semi_major_axis_km": 6861.181996764219,
      "eccentricity": 5.199e-05,
      "inclination_deg": 42.9992,
      "raan_deg": 140.2661,
      "arg_perigee_deg": 40.2936,
      "mean_anomaly_deg": 319.7954,
      "mean_motion_rev_day": 15.27581369
    },
    {
      "epoch": "2026-03-31T02:51:07.525440Z",
      "apogee_km": 483.17141746198195,
      "perigee_km": 482.75645807726505,
      "latitude_deg": 6.400926930395756e-05,
      "longitude_deg": -92.49178799305942,
      "height_km": 482.64136562473954,
      "semi_major_axis_km": 6861.100937769623,
      "eccentricity": 3.024e-05,
      "inclination_deg": 43.0001,
      "raan_deg": 138.7903,
      "arg_perigee_deg": 298.2679,
      "mean_anomaly_deg": 61.8143,
      "mean_motion_rev_day": 15.2760844
    },
    {
      "epoch": "2026-04-01T19:39:12.008736Z",
      "apogee_km": 483.35667414042746,
      "perigee_km": 482.7227014144755,
      "latitude_deg": 1.5293160546500045e-06,
      "longitude_deg": 4.212819617347464,
      "height_km": 482.56898189584604,
      "semi_major_axis_km": 6861.176687777451,
      "eccentricity": 4.62e-05,
      "inclination_deg": 42.9979,
      "raan_deg": 129.1893,
      "arg_perigee_deg": 39.2104,
      "mean_anomaly_deg": 320.8781,
      "mean_motion_rev_day": 15.27583142
    },
    {
      "epoch": "2026-04-02T19:11:32.530848Z",
      "apogee_km": 483.4218171288567,
      "perigee_km": 482.63278323433497,
      "latitude_deg": 2.7065805008665928e-05,
      "longitude_deg": 4.621725066951256,
      "height_km": 482.61601447110866,
      "semi_major_axis_km": 6861.1643001815955,
      "eccentricity": 5.75e-05,
      "inclination_deg": 42.9928,
      "raan_deg": 123.6504,
      "arg_perigee_deg": 61.9731,
      "mean_anomaly_deg": 298.1179,
      "mean_motion_rev_day": 15.27587279
    },
    {
      "epoch": "2026-04-02T19:11:32.531712Z",
      "apogee_km": 483.42209157542857,
      "perigee_km": 482.6325087877631,
      "latitude_deg": 2.429203004638981e-05,
      "longitude_deg": 4.621718498278868,
      "height_km": 482.61588553013894,
      "semi_major_axis_km": 6861.1643001815955,
      "eccentricity": 5.754e-05,
      "inclination_deg": 42.9928,
      "raan_deg": 123.6504,
      "arg_perigee_deg": 61.9731,
      "mean_anomaly_deg": 298.1179,
      "mean_motion_rev_day": 15.27587279
    },
    {
      "epoch": "2026-04-03T03:02:18.537216Z",
      "apogee_km": 483.95091765148845,
      "perigee_km": 481.96545392662574,
      "latitude_deg": 5.903605725118958e-05,
      "longitude_deg": -115.24116232665317,
      "height_km": 482.79357670919757,
      "semi_major_axis_km": 6861.095185789057,
      "eccentricity": 0.00014469,
      "inclination_deg": 43.0023,
      "raan_deg": 121.8014,
      "arg_perigee_deg": 266.6267,
      "mean_anomaly_deg": 93.442,
      "mean_motion_rev_day": 15.27610361
    },
    {
      "epoch": "2026-04-04T10:25:26.972544Z",
      "apogee_km": 484.33921861191357,
      "perigee_km": 481.738695700632,
      "latitude_deg": -1.0806185438216716e-05,
      "longitude_deg": 125.3003515874721,
      "height_km": 482.45195279689204,
      "semi_major_axis_km": 6861.1759571562725,
      "eccentricity": 0.00018951,
      "inclination_deg": 43.0049,
      "raan_deg": 114.4171,
      "arg_perigee_deg": 286.2862,
      "mean_anomaly_deg": 73.7781,
      "mean_motion_rev_day": 15.27583386
    },
    {
      "epoch": "2026-04-05T09:57:46.823328Z",
      "apogee_km": 483.7415132089882,
      "perigee_km": 482.14960483364393,
      "latitude_deg": 7.564077984182439e-06,
      "longitude_deg": 125.71185218093846,
      "height_km": 482.0260240222022,
      "semi_major_axis_km": 6861.082559021316,
      "eccentricity": 0.00011601,
      "inclination_deg": 43.0009,
      "raan_deg": 108.878,
      "arg_perigee_deg": 330.9308,
      "mean_anomaly_deg": 29.1479,
      "mean_motion_rev_day": 15.27614578
    },
    {
      "epoch": "2026-04-05T17:48:34.695936Z",
      "apogee_km": 483.5623398352873,
      "perigee_km": 482.7197748898425,
      "latitude_deg": -8.804307358253033e-07,
      "longitude_deg": 5.8420236940193995,
      "height_km": 482.49585089268845,
      "semi_major_axis_km": 6861.278057362564,
      "eccentricity": 6.14e-05,
      "inclination_deg": 43.0005,
      "raan_deg": 107.0299,
      "arg_perigee_deg": 357.157,
      "mean_anomaly_deg": 2.9278,
      "mean_motion_rev_day": 15.27549289
    },
    {
      "epoch": "2026-04-06T01:39:22.834656Z",
      "apogee_km": 483.6969799610488,
      "perigee_km": 482.6166006408275,
      "latitude_deg": -4.95931648815893e-07,
      "longitude_deg": -114.02760726098438,
      "height_km": 482.5013651438362,
      "semi_major_axis_km": 6861.293790300938,
      "eccentricity": 7.873e-05,
      "inclination_deg": 43.0,
      "raan_deg": 105.1831,
      "arg_perigee_deg": 37.179,
      "mean_anomaly_deg": 322.9116,
      "mean_motion_rev_day": 15.27544035
    },
    {
      "epoch": "2026-04-07T01:11:44.439360Z",
      "apogee_km": 483.67164510060957,
      "perigee_km": 482.2280724255261,
      "latitude_deg": -2.975494429988162e-05,
      "longitude_deg": -113.61908664158894,
      "height_km": 482.03811203019865,
      "semi_major_axis_km": 6861.0868587630675,
      "eccentricity": 0.0001052,
      "inclination_deg": 43.001,
      "raan_deg": 99.6484,
      "arg_perigee_deg": 17.8534,
      "mean_anomaly_deg": 342.2354,
      "mean_motion_rev_day": 15.27613142
    },
    {
      "epoch": "2026-04-08T08:34:50.547936Z",
      "apogee_km": 483.38368902616185,
      "perigee_km": 482.5305805814405,
      "latitude_deg": 2.5145343828841413e-05,
      "longitude_deg": 126.92847822373857,
      "height_km": 482.30681021204975,
      "semi_major_axis_km": 6861.0941348038,
      "eccentricity": 6.217e-05,
      "inclination_deg": 43.0034,
      "raan_deg": 92.2603,
      "arg_perigee_deg": 357.6373,
      "mean_anomaly_deg": 2.4476,
      "mean_motion_rev_day": 15.27610712
    },
    {
      "epoch": "2026-04-09T15:57:58.463136Z",
      "apogee_km": 483.53085710387313,
      "perigee_km": 482.5524530276607,
      "latitude_deg": 3.583700240182452e-07,
      "longitude_deg": 7.47010987596615,
      "height_km": 482.6286326865305,
      "semi_major_axis_km": 6861.178655065766,
      "eccentricity": 7.13e-05,
      "inclination_deg": 42.9992,
      "raan_deg": 84.8739,
      "arg_perigee_deg": 67.4421,
      "mean_anomaly_deg": 292.6506,
      "mean_motion_rev_day": 15.27582485
    },
    {
      "epoch": "2026-04-10T07:39:31.906656Z",
      "apogee_km": 483.09641224754796,
      "perigee_km": 482.89743936369905,
      "latitude_deg": 2.7250539432774105e-07,
      "longitude_deg": 127.74488691492755,
      "height_km": 482.68428804432597,
      "semi_major_axis_km": 6861.133925805623,
      "eccentricity": 1.45e-05,
      "inclination_deg": 43.0024,
      "raan_deg": 81.1825,
      "arg_perigee_deg": 332.6827,
      "mean_anomaly_deg": 27.4017,
      "mean_motion_rev_day": 15.27597423
    },
    {
      "epoch": "2026-04-11T15:02:39.972192Z",
      "apogee_km": 483.4263586814668,
      "perigee_km": 482.6414407305392,
      "latitude_deg": -5.184655734848281e-05,
      "longitude_deg": 8.286762622794273,
      "height_km": 482.9343431523275,
      "semi_major_axis_km": 6861.170899706002,
      "eccentricity": 5.72e-05,
      "inclination_deg": 43.0015,
      "raan_deg": 73.797,
      "arg_perigee_deg": 108.6422,
      "mean_anomaly_deg": 251.4491,
      "mean_motion_rev_day": 15.27585075
    },
    {
      "epoch": "2026-04-13T06:16:34.991904Z",
      "apogee_km": 483.423511337739,
      "perigee_km": 482.67330932497316,
      "latitude_deg": -2.4706719043150745e-05,
      "longitude_deg": 128.96474289782978,
      "height_km": 483.1981927430876,
      "semi_major_axis_km": 6861.185410331356,
      "eccentricity": 5.467e-05,
      "inclination_deg": 43.0035,
      "raan_deg": 64.5654,
      "arg_perigee_deg": 175.7621,
      "mean_anomaly_deg": 184.3235,
      "mean_motion_rev_day": 15.27580229
    },
    {
      "epoch": "2026-04-14T21:30:30.561120Z",
      "apogee_km": 483.5385038323602,
      "perigee_km": 482.4860035368447,
      "latitude_deg": -5.837678076686353e-06,
      "longitude_deg": -110.3614787955757,
      "height_km": 483.1910177690686,
      "semi_major_axis_km": 6861.149253684603,
      "eccentricity": 7.67e-05,
      "inclination_deg": 43.0016,
      "raan_deg": 55.3319,
      "arg_perigee_deg": 140.1056,
      "mean_anomaly_deg": 219.9852,
      "mean_motion_rev_day": 15.27592304
    },
    {
      "epoch": "2026-04-15T05:21:17.224992Z",
      "apogee_km": 483.7592792413334,
      "perigee_km": 482.1963172902888,
      "latitude_deg": -1.1272057239765029e-06,
      "longitude_deg": 129.773558124012,
      "height_km": 483.06885029345113,
      "semi_major_axis_km": 6861.114798265811,
      "eccentricity": 0.0001139,
      "inclination_deg": 43.0012,
      "raan_deg": 53.4836,
      "arg_perigee_deg": 113.9067,
      "mean_anomaly_deg": 246.1904,
      "mean_motion_rev_day": 15.27603811
    },
    {
      "epoch": "2026-04-16T12:44:24.106848Z",
      "apogee_km": 483.79579696612655,
      "perigee_km": 482.3631749638571,
      "latitude_deg": -1.7761230897348555e-05,
      "longitude_deg": 10.324022336102846,
      "height_km": 483.5464206254338,
      "semi_major_axis_km": 6861.216485964992,
      "eccentricity": 0.0001044,
      "inclination_deg": 43.0032,
      "raan_deg": 46.1017,
      "arg_perigee_deg": 195.28,
      "mean_anomaly_deg": 164.802,
      "mean_motion_rev_day": 15.27569851
    },
    {
      "epoch": "2026-04-17T20:07:32.231136Z",
      "apogee_km": 483.80686133184463,
      "perigee_km": 482.223856259624,
      "latitude_deg": 1.4263715793979131e-05,
      "longitude_deg": -109.13335323990657,
      "height_km": 483.5799880834617,
      "semi_major_axis_km": 6861.1523587957345,
      "eccentricity": 0.00011536,
      "inclination_deg": 43.0017,
      "raan_deg": 38.7171,
      "arg_perigee_deg": 175.6629,
      "mean_anomaly_deg": 184.4233,
      "mean_motion_rev_day": 15.27591267
    }
  ]
}